IRIDIUM 116             
1 43072U 17083C   24128.48216693 -.00000127  00000+0 -52316-4 0  9993
2 43072  86.3922 284.0873 0001969  96.3978 263.7442 14.34216172333702
IRIDIUM 130             
1 43073U 17083D   24128.52022063 -.00000022  00000+0 -14817-4 0  9993
2 43073  86.3930 284.2722 0001967  89.0951 271.0470 14.34215986333654
IRIDIUM 151             
1 43074U 17083E   24128.49483871  .00000206  00000+0  66458-4 0  9998
2 43074  86.3924 284.1223 0002522  97.3676 262.7807 14.34216111333671
IRIDIUM 134             
1 43075U 17083F   24128.46313818  .00000004  00000+0 -57820-5 0  9990
2 43075  86.3923 284.1333 0001881  89.7710 270.3701 14.34216461333636
IRIDIUM 137             
1 43076U 17083G   24128.47582274  .00000076  00000+0  19999-4 0  9998
2 43076  86.3927 284.2052 0002217 104.3722 255.7719 14.34217255333707
IRIDIUM 141             
1 43077U 17083H   24128.46947675  .00000033  00000+0  48591-5 0  9992
2 43077  86.3925 284.0821 0002268  92.4855 267.6600 14.34218675333706
IRIDIUM 153             
1 43078U 17083J   24128.42166353  .00000524  00000+0  17985-3 0  9991
2 43078  86.3966 252.5429 0002622  88.4390 271.7106 14.34221088334800
IRIDIUM 131             
1 43079U 17083K   24128.52656493 -.00000099  00000+0 -42556-4 0  9994
2 43079  86.3927 284.1930 0002112  97.9394 262.2042 14.34216493333648
